IRIDIUM 36              
1 24967U 97056C   24204.22192048  .00001112  00000+0  36962-3 0  9998
2 24967  86.3986 311.5853 0002146  88.7340 271.4103 14.36905609404828
IRIDIUM 39              
1 25042U 97069D   24203.90588183  .00001697  00000+0  45021-3 0  9994
2 25042  86.3939 352.6887 0017220 335.0469  24.9900 14.48084710401404
IRIDIUM 38              
1 25043U 97069E   24204.42735314  .00001130  00000+0  37211-3 0  9997
2 25043  86.3969  11.8511 0003896  95.6053 264.5589 14.37351091398832
IRIDIUM 42              
1 25077U 97077A   24204.03411896  .00001049  00000+0  35715-3 0  9992
2 25077  86.3967  17.7774 0002675  96.9307 263.2193 14.35641667393812
IRIDIUM 44              
1 25078U 97077B   24203.97114827  .00001182  00000+0  37305-3 0  9994
2 25078  86.3974   0.6208 0003455  63.9102 296.2452 14.39490150396212
IRIDIUM 45              
1 25104U 97082A   24204.01895528  .00023108  00000+0  12444-2 0  9998
2 25104  86.3738 205.8862 0158941 112.1600 249.6589 15.04383830402340
IRIDIUM 24              
1 25105U 97082B   24204.08579277  .00001260  00000+0  38359-3 0  9995
2 25105  86.3904 220.0992 0013816  88.8952 271.3831 14.41276780395909
IRIDIUM 51              
1 25262U 98018A   24203.59293064  .00029818  00000+0  13123-2 0  9991
2 25262  86.3926 215.7987 0143064  56.9248 304.5634 15.12862909396617
