<?xml version="1.0" encoding="UTF-8"?>
<ndm xmlns:xsi="http://www.w3.org/2001/XMLSchema-instance" xsi:noNamespaceSchemaLocation="https://sanaregistry.org/r/ndmxml_unqualified/ndmxml-2.0.0-master-2.0.xsd">
<omm id="CCSDS_OMM_VERS" version="2.0">
<header><CREATION_DATE/><ORIGINATOR/></header><body><segment><metadata><OBJECT_NAME>IRIDIUM 36</OBJECT_NAME><OBJECT_ID>1997-056C</OBJECT_ID><CENTER_NAME>EARTH</CENTER_NAME><REF_FRAME>TEME</REF_FRAME><TIME_SYSTEM>UTC</TIME_SYSTEM><MEAN_ELEMENT_THEORY>SGP4</MEAN_ELEMENT_THEORY></metadata><data><meanElements><EPOCH>2024-07-22T05:19:33.929472</EPOCH><MEAN_MOTION>14.36905609</MEAN_MOTION><ECCENTRICITY>.0002146</ECCENTRICITY><INCLINATION>86.3986</INCLINATION><RA_OF_ASC_NODE>311.5853</RA_OF_ASC_NODE><ARG_OF_PERICENTER>88.7340</ARG_OF_PERICENTER><MEAN_ANOMALY>271.4103</MEAN_ANOMALY></meanElements><tleParameters><EPHEMERIS_TYPE>0</EPHEMERIS_TYPE><CLASSIFICATION_TYPE>U</CLASSIFICATION_TYPE><NORAD_CAT_ID>24967</NORAD_CAT_ID><ELEMENT_SET_NO>999</ELEMENT_SET_NO><REV_AT_EPOCH>40482</REV_AT_EPOCH><BSTAR>.36962E-3</BSTAR><MEAN_MOTION_DOT>.1112E-4</MEAN_MOTION_DOT><MEAN_MOTION_DDOT>0</MEAN_MOTION_DDOT></tleParameters></data></segment></body></omm>
<omm id="CCSDS_OMM_VERS" version="2.0">
<header><CREATION_DATE/><ORIGINATOR/></header><body><segment><metadata><OBJECT_NAME>IRIDIUM 39</OBJECT_NAME><OBJECT_ID>1997-069D</OBJECT_ID><CENTER_NAME>EARTH</CENTER_NAME><REF_FRAME>TEME</REF_FRAME><TIME_SYSTEM>UTC</TIME_SYSTEM><MEAN_ELEMENT_THEORY>SGP4</MEAN_ELEMENT_THEORY></metadata><data><meanElements><EPOCH>2024-07-21T21:44:28.190112</EPOCH><MEAN_MOTION>14.48084710</MEAN_MOTION><ECCENTRICITY>.001722</ECCENTRICITY><INCLINATION>86.3939</INCLINATION><RA_OF_ASC_NODE>352.6887</RA_OF_ASC_NODE><ARG_OF_PERICENTER>335.0469</ARG_OF_PERICENTER><MEAN_ANOMALY>24.9900</MEAN_ANOMALY></meanElements><tleParameters><EPHEMERIS_TYPE>0</EPHEMERIS_TYPE><CLASSIFICATION_TYPE>U</CLASSIFICATION_TYPE><NORAD_CAT_ID>25042</NORAD_CAT_ID><ELEMENT_SET_NO>999</ELEMENT_SET_NO><REV_AT_EPOCH>40140</REV_AT_EPOCH><BSTAR>.45021E-3</BSTAR><MEAN_MOTION_DOT>.1697E-4</MEAN_MOTION_DOT><MEAN_MOTION_DDOT>0</MEAN_MOTION_DDOT></tleParameters></data></segment></body></omm>
<omm id="CCSDS_OMM_VERS" version="2.0">
<header><CREATION_DATE/><ORIGINATOR/></header><body><segment><metadata><OBJECT_NAME>IRIDIUM 38</OBJECT_NAME><OBJECT_ID>1997-069E</OBJECT_ID><CENTER_NAME>EARTH</CENTER_NAME><REF_FRAME>TEME</REF_FRAME><TIME_SYSTEM>UTC</TIME_SYSTEM><MEAN_ELEMENT_THEORY>SGP4</MEAN_ELEMENT_THEORY></metadata><data><meanElements><EPOCH>2024-07-22T10:15:23.311296</EPOCH><MEAN_MOTION>14.37351091</MEAN_MOTION><ECCENTRICITY>.0003896</ECCENTRICITY><INCLINATION>86.3969</INCLINATION><RA_OF_ASC_NODE>11.8511</RA_OF_ASC_NODE><ARG_OF_PERICENTER>95.6053</ARG_OF_PERICENTER><MEAN_ANOMALY>264.5589</MEAN_ANOMALY></meanElements><tleParameters><EPHEMERIS_TYPE>0</EPHEMERIS_TYPE><CLASSIFICATION_TYPE>U</CLASSIFICATION_TYPE><NORAD_CAT_ID>25043</NORAD_CAT_ID><ELEMENT_SET_NO>999</ELEMENT_SET_NO><REV_AT_EPOCH>39883</REV_AT_EPOCH><BSTAR>.37211E-3</BSTAR><MEAN_MOTION_DOT>.113E-4</MEAN_MOTION_DOT><MEAN_MOTION_DDOT>0</MEAN_MOTION_DDOT></tleParameters></data></segment></body></omm>
<omm id="CCSDS_OMM_VERS" version="2.0">
<header><CREATION_DATE/><ORIGINATOR/></header><body><segment><metadata><OBJECT_NAME>IRIDIUM 42</OBJECT_NAME><OBJECT_ID>1997-077A</OBJECT_ID><CENTER_NAME>EARTH</CENTER_NAME><REF_FRAME>TEME</REF_FRAME><TIME_SYSTEM>UTC</TIME_SYSTEM><MEAN_ELEMENT_THEORY>SGP4</MEAN_ELEMENT_THEORY></metadata><data><meanElements><EPOCH>2024-07-22T00:49:07.878144</EPOCH><MEAN_MOTION>14.35641667</MEAN_MOTION><ECCENTRICITY>.0002675</ECCENTRICITY><INCLINATION>86.3967</INCLINATION><RA_OF_ASC_NODE>17.7774</RA_OF_ASC_NODE><ARG_OF_PERICENTER>96.9307</ARG_OF_PERICENTER><MEAN_ANOMALY>263.2193</MEAN_ANOMALY></meanElements><tleParameters><EPHEMERIS_TYPE>0</EPHEMERIS_TYPE><CLASSIFICATION_TYPE>U</CLASSIFICATION_TYPE><NORAD_CAT_ID>25077</NORAD_CAT_ID><ELEMENT_SET_NO>999</ELEMENT_SET_NO><REV_AT_EPOCH>39381</REV_AT_EPOCH><BSTAR>.35715E-3</BSTAR><MEAN_MOTION_DOT>.1049E-4</MEAN_MOTION_DOT><MEAN_MOTION_DDOT>0</MEAN_MOTION_DDOT></tleParameters></data></segment></body></omm>
<omm id="CCSDS_OMM_VERS" version="2.0">
<header><CREATION_DATE/><ORIGINATOR/></header><body><segment><metadata><OBJECT_NAME>IRIDIUM 44</OBJECT_NAME><OBJECT_ID>1997-077B</OBJECT_ID><CENTER_NAME>EARTH</CENTER_NAME><REF_FRAME>TEME</REF_FRAME><TIME_SYSTEM>UTC</TIME_SYSTEM><MEAN_ELEMENT_THEORY>SGP4</MEAN_ELEMENT_THEORY></metadata><data><meanElements><EPOCH>2024-07-21T23:18:27.210528</EPOCH><MEAN_MOTION>14.39490150</MEAN_MOTION><ECCENTRICITY>.0003455</ECCENTRICITY><INCLINATION>86.3974</INCLINATION><RA_OF_ASC_NODE>0.6208</RA_OF_ASC_NODE><ARG_OF_PERICENTER>63.9102</ARG_OF_PERICENTER><MEAN_ANOMALY>296.2452</MEAN_ANOMALY></meanElements><tleParameters><EPHEMERIS_TYPE>0</EPHEMERIS_TYPE><CLASSIFICATION_TYPE>U</CLASSIFICATION_TYPE><NORAD_CAT_ID>25078</NORAD_CAT_ID><ELEMENT_SET_NO>999</ELEMENT_SET_NO><REV_AT_EPOCH>39621</REV_AT_EPOCH><BSTAR>.37305E-3</BSTAR><MEAN_MOTION_DOT>.1182E-4</MEAN_MOTION_DOT><MEAN_MOTION_DDOT>0</MEAN_MOTION_DDOT></tleParameters></data></segment></body></omm>
<omm id="CCSDS_OMM_VERS" version="2.0">
<header><CREATION_DATE/><ORIGINATOR/></header><body><segment><metadata><OBJECT_NAME>IRIDIUM 45</OBJECT_NAME><OBJECT_ID>1997-082A</OBJECT_ID><CENTER_NAME>EARTH</CENTER_NAME><REF_FRAME>TEME</REF_FRAME><TIME_SYSTEM>UTC</TIME_SYSTEM><MEAN_ELEMENT_THEORY>SGP4</MEAN_ELEMENT_THEORY></metadata><data><meanElements><EPOCH>2024-07-22T00:27:17.736192</EPOCH><MEAN_MOTION>15.04383830</MEAN_MOTION><ECCENTRICITY>.0158941</ECCENTRICITY><INCLINATION>86.3738</INCLINATION><RA_OF_ASC_NODE>205.8862</RA_OF_ASC_NODE><ARG_OF_PERICENTER>112.1600</ARG_OF_PERICENTER><MEAN_ANOMALY>249.6589</MEAN_ANOMALY></meanElements><tleParameters><EPHEMERIS_TYPE>0</EPHEMERIS_TYPE><CLASSIFICATION_TYPE>U</CLASSIFICATION_TYPE><NORAD_CAT_ID>25104</NORAD_CAT_ID><ELEMENT_SET_NO>999</ELEMENT_SET_NO><REV_AT_EPOCH>40234</REV_AT_EPOCH><BSTAR>.12444E-2</BSTAR><MEAN_MOTION_DOT>.23108E-3</MEAN_MOTION_DOT><MEAN_MOTION_DDOT>0</MEAN_MOTION_DDOT></tleParameters></data></segment></body></omm>
<omm id="CCSDS_OMM_VERS" version="2.0">
<header><CREATION_DATE/><ORIGINATOR/></header><body><segment><metadata><OBJECT_NAME>IRIDIUM 24</OBJECT_NAME><OBJECT_ID>1997-082B</OBJECT_ID><CENTER_NAME>EARTH</CENTER_NAME><REF_FRAME>TEME</REF_FRAME><TIME_SYSTEM>UTC</TIME_SYSTEM><MEAN_ELEMENT_THEORY>SGP4</MEAN_ELEMENT_THEORY></metadata><data><meanElements><EPOCH>2024-07-22T02:03:32.495328</EPOCH><MEAN_MOTION>14.41276780</MEAN_MOTION><ECCENTRICITY>.0013816</ECCENTRICITY><INCLINATION>86.3904</INCLINATION><RA_OF_ASC_NODE>220.0992</RA_OF_ASC_NODE><ARG_OF_PERICENTER>88.8952</ARG_OF_PERICENTER><MEAN_ANOMALY>271.3831</MEAN_ANOMALY></meanElements><tleParameters><EPHEMERIS_TYPE>0</EPHEMERIS_TYPE><CLASSIFICATION_TYPE>U</CLASSIFICATION_TYPE><NORAD_CAT_ID>25105</NORAD_CAT_ID><ELEMENT_SET_NO>999</ELEMENT_SET_NO><REV_AT_EPOCH>39590</REV_AT_EPOCH><BSTAR>.38359E-3</BSTAR><MEAN_MOTION_DOT>.126E-4</MEAN_MOTION_DOT><MEAN_MOTION_DDOT>0</MEAN_MOTION_DDOT></tleParameters></data></segment></body></omm>
<omm id="CCSDS_OMM_VERS" version="2.0">
<header><CREATION_DATE/><ORIGINATOR/></header><body><segment><metadata><OBJECT_NAME>IRIDIUM 51</OBJECT_NAME><OBJECT_ID>1998-018A</OBJECT_ID><CENTER_NAME>EARTH</CENTER_NAME><REF_FRAME>TEME</REF_FRAME><TIME_SYSTEM>UTC</TIME_SYSTEM><MEAN_ELEMENT_THEORY>SGP4</MEAN_ELEMENT_THEORY></metadata><data><meanElements><EPOCH>2024-07-21T14:13:49.207296</EPOCH><MEAN_MOTION>15.12862909</MEAN_MOTION><ECCENTRICITY>.0143064</ECCENTRICITY><INCLINATION>86.3926</INCLINATION><RA_OF_ASC_NODE>215.7987</RA_OF_ASC_NODE><ARG_OF_PERICENTER>56.9248</ARG_OF_PERICENTER><MEAN_ANOMALY>304.5634</MEAN_ANOMALY></meanElements><tleParameters><EPHEMERIS_TYPE>0</EPHEMERIS_TYPE><CLASSIFICATION_TYPE>U</CLASSIFICATION_TYPE><NORAD_CAT_ID>25262</NORAD_CAT_ID><ELEMENT_SET_NO>999</ELEMENT_SET_NO><REV_AT_EPOCH>39661</REV_AT_EPOCH><BSTAR>.13123E-2</BSTAR><MEAN_MOTION_DOT>.29818E-3</MEAN_MOTION_DOT><MEAN_MOTION_DDOT>0</MEAN_MOTION_DDOT></tleParameters></data></segment></body></omm>

</ndm>
